CCSDS_OMM_VERS = 2.0
CREATION_DATE  = 
ORIGINATOR     = 

OBJECT_NAME    = STRIX-5
OBJECT_ID      = 2025-229A
CENTER_NAME    = EARTH
REF_FRAME      = TEME
TIME_SYSTEM    = UTC
MEAN_ELEMENT_THEORY = SGP/SGP4

EPOCH          = 2025-10-24T06:59:29.825088
MEAN_MOTION    = 15.01617556
ECCENTRICITY   = .0040776
INCLINATION    = 41.9260
RA_OF_ASC_NODE = 152.9598
ARG_OF_PERICENTER = 308.0764
MEAN_ANOMALY   = 51.6386

EPHEMERIS_TYPE = 0
CLASSIFICATION_TYPE = U
NORAD_CAT_ID   = 65971
ELEMENT_SET_NO = 999
REV_AT_EPOCH   = 147
BSTAR          = .55984E-3
MEAN_MOTION_DOT = .7332E-4
MEAN_MOTION_DDOT = 0

CCSDS_OMM_VERS = 2.0
CREATION_DATE  = 
ORIGINATOR     = 

OBJECT_NAME    = ELECTRON R/B
OBJECT_ID      = 2025-229B
CENTER_NAME    = EARTH
REF_FRAME      = TEME
TIME_SYSTEM    = UTC
MEAN_ELEMENT_THEORY = SGP/SGP4

EPOCH          = 2025-10-26T06:52:54.705792
MEAN_MOTION    = 15.01638392
ECCENTRICITY   = .0040458
INCLINATION    = 41.9264
RA_OF_ASC_NODE = 141.9425
ARG_OF_PERICENTER = 320.7793
MEAN_ANOMALY   = 39.0102

EPHEMERIS_TYPE = 0
CLASSIFICATION_TYPE = U
NORAD_CAT_ID   = 65972
ELEMENT_SET_NO = 999
REV_AT_EPOCH   = 175
BSTAR          = .40174E-3
MEAN_MOTION_DOT = .5206E-4
MEAN_MOTION_DDOT = 0

CCSDS_OMM_VERS = 2.0
CREATION_DATE  = 
ORIGINATOR     = 

OBJECT_NAME    = ELECTRON KICK STAGE R/B
OBJECT_ID      = 2025-229C
CENTER_NAME    = EARTH
REF_FRAME      = TEME
TIME_SYSTEM    = UTC
MEAN_ELEMENT_THEORY = SGP/SGP4

EPOCH          = 2025-10-26T06:43:42.716064
MEAN_MOTION    = 15.02486039
ECCENTRICITY   = .0041489
INCLINATION    = 41.9821
RA_OF_ASC_NODE = 141.9646
ARG_OF_PERICENTER = 320.9426
MEAN_ANOMALY   = 38.8407

EPHEMERIS_TYPE = 0
CLASSIFICATION_TYPE = U
NORAD_CAT_ID   = 65973
ELEMENT_SET_NO = 999
REV_AT_EPOCH   = 174
BSTAR          = .45066E-3
MEAN_MOTION_DOT = .6005E-4
MEAN_MOTION_DDOT = 0

CCSDS_OMM_VERS = 2.0
CREATION_DATE  = 
ORIGINATOR     = 

OBJECT_NAME    = HULIANWANG DIGUI 12A
OBJECT_ID      = 2025-231A
CENTER_NAME    = EARTH
REF_FRAME      = TEME
TIME_SYSTEM    = UTC
MEAN_ELEMENT_THEORY = SGP/SGP4

EPOCH          = 2025-10-25T22:08:05.811072
MEAN_MOTION    = 14.04903841
ECCENTRICITY   = .0006545
INCLINATION    = 50.0013
RA_OF_ASC_NODE = 317.5889
ARG_OF_PERICENTER = 288.5047
MEAN_ANOMALY   = 71.5146

EPHEMERIS_TYPE = 0
CLASSIFICATION_TYPE = U
NORAD_CAT_ID   = 65995
ELEMENT_SET_NO = 999
REV_AT_EPOCH   = 139
BSTAR          = .16617E-3
MEAN_MOTION_DOT = .117E-5
MEAN_MOTION_DDOT = 0

CCSDS_OMM_VERS = 2.0
CREATION_DATE  = 
ORIGINATOR     = 

OBJECT_NAME    = HULIANWANG DIGUI 12B
OBJECT_ID      = 2025-231B
CENTER_NAME    = EARTH
REF_FRAME      = TEME
TIME_SYSTEM    = UTC
MEAN_ELEMENT_THEORY = SGP/SGP4

EPOCH          = 2025-10-26T11:52:07.913856
MEAN_MOTION    = 14.03875739
ECCENTRICITY   = .0008973
INCLINATION    = 49.9999
RA_OF_ASC_NODE = 315.2828
ARG_OF_PERICENTER = 295.1876
MEAN_ANOMALY   = 64.8098

EPHEMERIS_TYPE = 0
CLASSIFICATION_TYPE = U
NORAD_CAT_ID   = 65996
ELEMENT_SET_NO = 999
REV_AT_EPOCH   = 147
BSTAR          = .15248E-3
MEAN_MOTION_DOT = .91E-6
MEAN_MOTION_DDOT = 0

CCSDS_OMM_VERS = 2.0
CREATION_DATE  = 
ORIGINATOR     = 

OBJECT_NAME    = HULIANWANG DIGUI 12C
OBJECT_ID      = 2025-231C
CENTER_NAME    = EARTH
REF_FRAME      = TEME
TIME_SYSTEM    = UTC
MEAN_ELEMENT_THEORY = SGP/SGP4

EPOCH          = 2025-10-25T22:06:32.816160
MEAN_MOTION    = 14.04741689
ECCENTRICITY   = .0007636
INCLINATION    = 49.9977
RA_OF_ASC_NODE = 317.5788
ARG_OF_PERICENTER = 292.5953
MEAN_ANOMALY   = 67.4143

EPHEMERIS_TYPE = 0
CLASSIFICATION_TYPE = U
NORAD_CAT_ID   = 65997
ELEMENT_SET_NO = 999
REV_AT_EPOCH   = 139
BSTAR          = .16545E-3
MEAN_MOTION_DOT = .115E-5
MEAN_MOTION_DDOT = 0

CCSDS_OMM_VERS = 2.0
CREATION_DATE  = 
ORIGINATOR     = 

OBJECT_NAME    = HULIANWANG DIGUI 12D
OBJECT_ID      = 2025-231D
CENTER_NAME    = EARTH
REF_FRAME      = TEME
TIME_SYSTEM    = UTC
MEAN_ELEMENT_THEORY = SGP/SGP4

EPOCH          = 2025-10-25T18:41:05.233920
MEAN_MOTION    = 14.05303129
ECCENTRICITY   = .0006578
INCLINATION    = 50.0005
RA_OF_ASC_NODE = 318.1615
ARG_OF_PERICENTER = 297.0411
MEAN_ANOMALY   = 62.9822

EPHEMERIS_TYPE = 0
CLASSIFICATION_TYPE = U
NORAD_CAT_ID   = 65998
ELEMENT_SET_NO = 999
REV_AT_EPOCH   = 137
BSTAR          = .16289E-3
MEAN_MOTION_DOT = .113E-5
MEAN_MOTION_DDOT = 0

CCSDS_OMM_VERS = 2.0
CREATION_DATE  = 
ORIGINATOR     = 

OBJECT_NAME    = HULIANWANG DIGUI 12E
OBJECT_ID      = 2025-231E
CENTER_NAME    = EARTH
REF_FRAME      = TEME
TIME_SYSTEM    = UTC
MEAN_ELEMENT_THEORY = SGP/SGP4

EPOCH          = 2025-10-25T23:47:39.132096
MEAN_MOTION    = 14.05675308
ECCENTRICITY   = .0008184
INCLINATION    = 50.0025
RA_OF_ASC_NODE = 317.2904
ARG_OF_PERICENTER = 307.0262
MEAN_ANOMALY   = 52.9894

EPHEMERIS_TYPE = 0
CLASSIFICATION_TYPE = U
NORAD_CAT_ID   = 65999
ELEMENT_SET_NO = 999
REV_AT_EPOCH   = 140
BSTAR          = .14526E-3
MEAN_MOTION_DOT = .86E-6
MEAN_MOTION_DDOT = 0

CCSDS_OMM_VERS = 2.0
CREATION_DATE  = 
ORIGINATOR     = 

OBJECT_NAME    = HULIANWANG DIGUI 12F
OBJECT_ID      = 2025-231F
CENTER_NAME    = EARTH
REF_FRAME      = TEME
TIME_SYSTEM    = UTC
MEAN_ELEMENT_THEORY = SGP/SGP4

EPOCH          = 2025-10-25T23:46:06.584736
MEAN_MOTION    = 14.05826000
ECCENTRICITY   = .0005664
INCLINATION    = 50.0066
RA_OF_ASC_NODE = 317.2912
ARG_OF_PERICENTER = 302.6769
MEAN_ANOMALY   = 57.3590

EPHEMERIS_TYPE = 0
CLASSIFICATION_TYPE = U
NORAD_CAT_ID   = 66000
ELEMENT_SET_NO = 999
REV_AT_EPOCH   = 140
BSTAR          = .15228E-3
MEAN_MOTION_DOT = .98E-6
MEAN_MOTION_DDOT = 0

CCSDS_OMM_VERS = 2.0
CREATION_DATE  = 
ORIGINATOR     = 

OBJECT_NAME    = HULIANWANG DIGUI 12G
OBJECT_ID      = 2025-231G
CENTER_NAME    = EARTH
REF_FRAME      = TEME
TIME_SYSTEM    = UTC
MEAN_ELEMENT_THEORY = SGP/SGP4

EPOCH          = 2025-10-25T23:45:06.223968
MEAN_MOTION    = 14.05927778
ECCENTRICITY   = .0006933
INCLINATION    = 50.0034
RA_OF_ASC_NODE = 317.2818
ARG_OF_PERICENTER = 314.4365
MEAN_ANOMALY   = 45.5972

EPHEMERIS_TYPE = 0
CLASSIFICATION_TYPE = U
NORAD_CAT_ID   = 66001
ELEMENT_SET_NO = 999
REV_AT_EPOCH   = 140
BSTAR          = .15983E-3
MEAN_MOTION_DOT = .111E-5
MEAN_MOTION_DDOT = 0

CCSDS_OMM_VERS = 2.0
CREATION_DATE  = 
ORIGINATOR     = 

OBJECT_NAME    = HULIANWANG DIGUI 12H
OBJECT_ID      = 2025-231H
CENTER_NAME    = EARTH
REF_FRAME      = TEME
TIME_SYSTEM    = UTC
MEAN_ELEMENT_THEORY = SGP/SGP4

EPOCH          = 2025-10-25T23:44:53.974176
MEAN_MOTION    = 14.05947408
ECCENTRICITY   = .00076405
INCLINATION    = 50.0076
RA_OF_ASC_NODE = 317.2879
ARG_OF_PERICENTER = 306.7605
MEAN_ANOMALY   = 53.2598

EPHEMERIS_TYPE = 0
CLASSIFICATION_TYPE = U
NORAD_CAT_ID   = 66002
ELEMENT_SET_NO = 999
REV_AT_EPOCH   = 140
BSTAR          = .39026458E-3
MEAN_MOTION_DOT = .491E-5
MEAN_MOTION_DDOT = 0

CCSDS_OMM_VERS = 2.0
CREATION_DATE  = 
ORIGINATOR     = 

OBJECT_NAME    = HULIANWANG DIGUI 12J
OBJECT_ID      = 2025-231J
CENTER_NAME    = EARTH
REF_FRAME      = TEME
TIME_SYSTEM    = UTC
MEAN_ELEMENT_THEORY = SGP/SGP4

EPOCH          = 2025-10-26T11:39:29.778048
MEAN_MOTION    = 14.06123596
ECCENTRICITY   = .0005649
INCLINATION    = 50.0045
RA_OF_ASC_NODE = 315.2436
ARG_OF_PERICENTER = 307.3337
MEAN_ANOMALY   = 52.7053

EPHEMERIS_TYPE = 0
CLASSIFICATION_TYPE = U
NORAD_CAT_ID   = 66003
ELEMENT_SET_NO = 999
REV_AT_EPOCH   = 147
BSTAR          = .17133E-3
MEAN_MOTION_DOT = .131E-5
MEAN_MOTION_DDOT = 0

