STRIX-5                 
1 65971U 25229A   25297.29131742  .00007332  00000+0  55984-3 0  9990
2 65971  41.9260 152.9598 0040776 308.0764  51.6386 15.01617556  1471
ELECTRON R/B            
1 65972U 25229B   25299.28674428  .00005206  00000+0  40174-3 0  9998
2 65972  41.9264 141.9425 0040458 320.7793  39.0102 15.01638392  1751
ELECTRON KICK STAGE R/B 
1 65973U 25229C   25299.28035551  .00006005  00000+0  45066-3 0  9990
2 65973  41.9821 141.9646 0041489 320.9426  38.8407 15.02486039  1740
HULIANWANG DIGUI 12A    
1 65995U 25231A   25298.92228948  .00000117  00000+0  16617-3 0  9999
2 65995  50.0013 317.5889 0006545 288.5047  71.5146 14.04903841  1391
HULIANWANG DIGUI 12B    
1 65996U 25231B   25299.49453604  .00000091  00000+0  15248-3 0  9992
2 65996  49.9999 315.2828 0008973 295.1876  64.8098 14.03875739  1474
HULIANWANG DIGUI 12C    
1 65997U 25231C   25298.92121315  .00000115  00000+0  16545-3 0  9999
2 65997  49.9977 317.5788 0007636 292.5953  67.4143 14.04741689  1391
HULIANWANG DIGUI 12D    
1 65998U 25231D   25298.77853280  .00000113  00000+0  16289-3 0  9999
2 65998  50.0005 318.1615 0006578 297.0411  62.9822 14.05303129  1372
HULIANWANG DIGUI 12E    
1 65999U 25231E   25298.99142514  .00000086  00000+0  14526-3 0  9996
2 65999  50.0025 317.2904 0008184 307.0262  52.9894 14.05675308  1400
HULIANWANG DIGUI 12F    
1 66000U 25231F   25298.99035399  .00000098  00000+0  15228-3 0  9995
2 66000  50.0066 317.2912 0005664 302.6769  57.3590 14.05826000  1400
HULIANWANG DIGUI 12G    
1 66001U 25231G   25298.98965537  .00000111  00000+0  15983-3 0  9995
2 66001  50.0034 317.2818 0006933 314.4365  45.5972 14.05927778  1401
HULIANWANG DIGUI 12H    
1 66002U 25231H   25298.98951359  .00000491  00000+0  39026-3 0  9998
2 66002  50.0076 317.2879 0007640 306.7605  53.2598 14.05947408  1404
HULIANWANG DIGUI 12J    
1 66003U 25231J   25299.48576132  .00000131  00000+0  17133-3 0  9993
2 66003  50.0045 315.2436 0005649 307.3337  52.7053 14.06123596  1476
